{
    "links": {
        "self": "http://www.neowsapp.com/rest/v1/neo/3523943?api_key=iIulBulltgU6a56xZRHN4H3l9WmuAYTsLGpBGhQ2"
    },
    "id": "3523943",
    "neo_reference_id": "3523943",
    "name": "(2010 KO10)",
    "designation": "2010 KO10",
    "nasa_jpl_url": "http://ssd.jpl.nasa.gov/sbdb.cgi?sstr=3523943",
    "absolute_magnitude_h": 27.1,
    "estimated_diameter": {
        "kilometers": {
            "estimated_diameter_min": 0.0101054342,
            "estimated_diameter_max": 0.0225964377
        },
        "meters": {
            "estimated_diameter_min": 10.1054341542,
            "estimated_diameter_max": 22.5964377109
        },
        "miles": {
            "estimated_diameter_min": 0.0062792237,
            "estimated_diameter_max": 0.0140407711
        },
        "feet": {
            "estimated_diameter_min": 33.1543125905,
            "estimated_diameter_max": 74.1352966996
        }
    },
    "is_potentially_hazardous_asteroid": false,
    "close_approach_data": [
        {
            "close_approach_date": "2004-09-19",
            "close_approach_date_full": "2004-Sep-19 05:17",
            "epoch_date_close_approach": 1095571020000,
            "relative_velocity": {
                "kilometers_per_second": "25.0011160857",
                "kilometers_per_hour": "90004.0179085225",
                "miles_per_hour": "55924.9965721039"
            },
            "miss_distance": {
                "astronomical": "0.4947707802",
                "lunar": "192.4658334978",
                "kilometers": "74016654.856158174",
                "miles": "45991816.6587398412"
            },
            "orbiting_body": "Earth"
        },
        {
            "close_approach_date": "2007-08-20",
            "close_approach_date_full": "2007-Aug-20 11:02",
            "epoch_date_close_approach": 1187607720000,
            "relative_velocity": {
                "kilometers_per_second": "12.142161816",
                "kilometers_per_hour": "43711.7825376464",
                "miles_per_hour": "27160.8017662393"
            },
            "miss_distance": {
                "astronomical": "0.1453586587",
                "lunar": "56.5445182343",
                "kilometers": "21745345.727576969",
                "miles": "13511931.2785374122"
            },
            "orbiting_body": "Earth"
        },
        {
            "close_approach_date": "2010-05-22",
            "close_approach_date_full": "2010-May-22 22:10",
            "epoch_date_close_approach": 1274566200000,
            "relative_velocity": {
                "kilometers_per_second": "12.4306607155",
                "kilometers_per_hour": "44750.3785756769",
                "miles_per_hour": "27806.1449544254"
            },
            "miss_distance": {
                "astronomical": "0.0028752372",
                "lunar": "1.1184672708",
                "kilometers": "430129.360864764",
                "miles": "267269.9913671832"
            },
            "orbiting_body": "Moon"
        },
        {
            "close_approach_date": "2010-05-23",
            "close_approach_date_full": "2010-May-23 03:55",
            "epoch_date_close_approach": 1274586900000,
            "relative_velocity": {
                "kilometers_per_second": "11.9400450125",
                "kilometers_per_hour": "42984.1620451429",
                "miles_per_hour": "26708.6866885501"
            },
            "miss_distance": {
                "astronomical": "0.001158191",
                "lunar": "0.450536299",
                "kilometers": "173262.90665317",
                "miles": "107660.577906946"
            },
            "orbiting_body": "Earth"
        },
        {
            "close_approach_date": "2081-09-14",
            "close_approach_date_full": "2081-Sep-14 00:51",
            "epoch_date_close_approach": 3525036660000,
            "relative_velocity": {
                "kilometers_per_second": "19.5439812552",
                "kilometers_per_hour": "70358.3325187027",
                "miles_per_hour": "43717.9316697461"
            },
            "miss_distance": {
                "astronomical": "0.3227541875",
                "lunar": "125.5513789375",
                "kilometers": "48283338.983580625",
                "miles": "30001875.638937625"
            },
            "orbiting_body": "Earth"
        }
    ],
    "orbital_data": {
        "orbit_id": "18",
        "orbit_determination_date": "2017-12-12 06:24:36",
        "first_observation_date": "2010-05-20",
        "last_observation_date": "2010-05-23",
        "data_arc_in_days": 3,
        "observations_used": 231,
        "orbit_uncertainty": "7",
        "minimum_orbit_intersection": ".00113874",
        "jupiter_tisserand_invariant": "3.691",
        "epoch_osculation": "2459000.5",
        "eccentricity": ".5285872631804642",
        "semi_major_axis": "1.955981341883686",
        "inclination": "8.127877149825167",
        "ascending_node_longitude": "61.82091426502875",
        "orbital_period": "999.1840401142427",
        "perihelion_distance": ".9220745175453365",
        "perihelion_argument": "222.6469822436047",
        "aphelion_distance": "2.989888166222035",
        "perihelion_time": "2459368.120532013370",
        "mean_anomaly": "227.5485333916247",
        "mean_motion": ".360293985439198",
        "equinox": "J2000",
        "orbit_class": {
            "orbit_class_type": "APO",
            "orbit_class_description": "Near-Earth asteroid orbits which cross the Earth’s orbit similar to that of 1862 Apollo",
            "orbit_class_range": "a (semi-major axis) > 1.0 AU; q (perihelion) < 1.017 AU"
        }
    },
    "is_sentry_object": false
}